0 ARIANE 1 DEB
1 28556U 79104V   13283.53404108  .00000057  00000-0  36777-2 0  6024
2 28556 015.3275 147.0024 7331018 078.6535 348.8945 01.95548914 80540
0 ARIANE 1 DEB
1 28556U 79104V   13283.56859681  .00000035  00000-0  44837-2 0  6018
2 28556 015.3287 146.9504 7330142 078.7244 013.2119 01.95548566 80548
0 ARIANE 1 DEB
1 28556U 79104V   13287.63362837  .00000183  00000-0  78619-2 0  6022
2 28556 015.3287 145.6592 7331432 081.0640 354.8752 01.95548370 80620
0 ARIANE 1 DEB
1 28556U 79104V   13292.75297525 -.00000088  00000-0  38149-2 0  6032
2 28556 015.3288 144.0298 7333028 084.0178 358.7695 01.95553140 80720
